1 47757U 21017AM  23257.41792155  .00016398  00000+0  11180-2 0  9993
2 47757  53.0552 324.5254 0001422  74.3945 285.7201 15.06372878140353
STARLINK-2178           
1 47760U 21017AQ  23256.91938252  .00015089  00000+0  10310-2 0  9991
2 47760  53.0551 336.7617 0001158  95.8096 264.3025 15.06353796140136
STARLINK-2179           
1 47761U 21017AR  23257.41423335 -.00002473  00000+0 -14724-3 0  9998
2 47761  53.0547 324.5422 0001507  82.8975 277.2186 15.06379820140352
STARLINK-2180           
1 47762U 21017AS  23257.44049641  .00013931  00000+0  95310-3 0  9995
2 47762  53.0560 339.4320 0001463  93.9584 266.1573 15.06367196140147
STARLINK-2181           
1 47763U 21017AT  23257.38981484  .00018207  00000+0  12388-2 0  9993
2 47763  53.0550 329.6473 0001279  94.1594 265.9542 15.06376981140275
STARLINK-2182           
1 47764U 21017AU  23257.42575123  .00019329  00000+0  13140-2 0  9991
2 47764  53.0555 339.4876 0001361  86.2955 273.8189 15.06370371140140
STARLINK-2184           
1 47766U 21017AW  23257.44323378  .00020882  00000+0  14174-2 0  9992
2 47766  53.0556 339.3991 0001594 114.8998 245.2156 15.06379109140148
STARLINK-2185           
1 47767U 21017AX  23257.40317414  .00000627  00000+0  60993-4 0  9990
2 47767  53.0557 324.5889 0001643 105.2170 254.9000 15.06380080140351
STARLINK-2189           
1 47768U 21017AY  23257.44422986  .00013297  00000+0  91058-3 0  9998
2 47768  53.0559 339.8007 0001479  89.2385 270.8774 15.06370867140145
STARLINK-2192           
1 47769U 21017AZ  23256.85580764 -.00002429  00000+0 -14432-3 0  9990
2 47769  53.0534 307.0474 0001297  99.0231 261.0905 15.06382213140541
STARLINK-2193           
1 47770U 21017BA  23257.39442142  .00022910  00000+0  15523-2 0  9995
2 47770  53.0548 319.6287 0001414 123.2227 236.8897 15.06391505140415
STARLINK-2194           
1 47771U 21017BB  23256.87469386  .00014047  00000+0  96094-3 0  9992
2 47771  53.0550 321.9621 0001231 109.8166 250.2956 15.06364378140342
STARLINK-2195           
1 47772U 21017BC  23257.39488864  .00010935  00000+0  75256-3 0  9992
2 47772  53.0558 334.6239 0001496  83.1809 276.9350 15.06365672140204
STARLINK-2196           
1 47773U 21017BD  23257.39119645 -.00000908  00000+0 -42074-4 0  9995
2 47773  53.0543 334.6440 0001720  87.1341 272.9845 15.06365531140207
STARLINK-2197           
1 47774U 21017BE  23257.45385620  .00022164  00000+0  15034-2 0  9991
2 47774  53.0550 334.3629 0001368  98.7172 261.3972 15.06369229140212
STARLINK-2198           
1 47775U 21017BF  23257.39857094 -.00002089  00000+0 -12144-3 0  9990
2 47775  53.0558 334.6098 0002123  89.3409 270.7823 15.06368178140214
STARLINK-2209           
1 47776U 21017BG  23257.42529212  .00009668  00000+0  66754-3 0  9997
2 47776  53.0544 324.4914 0001598  93.6665 266.4507 15.06371444140357
STARLINK-2210           
1 47777U 21017BH  23257.42897626  .00013421  00000+0  91897-3 0  9993
2 47777  53.0549 324.4744 0001429  89.1432 270.9721 15.06368927140359
STARLINK-2211           
1 47778U 21017BJ  23257.39580308  .00020073  00000+0  13636-2 0  9991
2 47778  53.0542 324.6237 0001198  91.7458 268.3668 15.06373478140350
STARLINK-2212           
1 47779U 21017BK  23256.91667824  .00759120  00000+0  27336-2 0  9992
2 47779  53.0346 248.3590 0011190  26.9550 195.8084 15.86212548141381
STARLINK-2213           
1 47780U 21017BL  23257.42160592  .00019618  00000+0  13331-2 0  9992
2 47780  53.0545 324.5076 0001308  85.3998 274.7141 15.06377042140366
STARLINK-2223           
1 47781U 21017BM  23257.45477998  .00021873  00000+0  14838-2 0  9996
2 47781  53.0543 324.3568 0001351  87.0097 273.1047 15.06372998140358
STARLINK-2257           
1 47787U 21018A   23257.00876438  .00016429  00000+0  11196-2 0  9991
2 47787  53.0567   6.3566 0001274  73.7531 286.3598 15.06389615139443
STARLINK-2314           
1 47788U 21018B   23257.41838061  .00024074  00000+0  16303-2 0  9997
2 47788  53.0548 339.5225 0001637  82.0806 278.0368 15.06383275139862
STARLINK-2315           
1 47789U 21018C   23257.40133049  .00023943  00000+0  16214-2 0  9996
2 47789  53.0564 344.5949 0001982 126.8036 233.3135 15.06385760139783
STARLINK-2319           
1 47790U 21018D   23257.44280236  .00019790  00000+0  13446-2 0  9992
2 47790  53.0558 334.4130 0001445  86.8212 273.2942 15.06375705139937
STARLINK-2322           
1 47791U 21018E   23257.32944957  .00005273  00000+0  37291-3 0  9993
2 47791  53.0569   4.9184 0001561  92.2665 267.8503 15.06369179139491
STARLINK-2334           
1 47792U 21018F   23257.40870390  .00017935  00000+0  12209-2 0  9991
2 47792  53.0557 344.5649 0001418  94.1609 265.9542 15.06368274139787
STARLINK-2338           
1 47793U 21018G   23257.42344844  .00015474  00000+0  10563-2 0  9991
2 47793  53.0555 344.4950 0001632  88.9845 271.1331 15.06368556139789
STARLINK-2341           
1 47794U 21018H   23257.42713102  .00011575  00000+0  79539-3 0  9996
2 47794  53.0565 344.4817 0001455  96.7849 263.3305 15.06367259139780
STARLINK-2347           
1 47795U 21018J   23257.41607551  .00019173  00000+0  13035-2 0  9996
2 47795  53.0559 344.5311 0001380  88.5003 271.6144 15.06373317139787
STARLINK-2373           
1 47796U 21018K   23257.43081983  .00026520  00000+0  17934-2 0  9990
2 47796  53.0556 344.4660 0001524 118.7312 241.3830 15.06383823139789
STARLINK-2377           
1 47797U 21018L   23257.33451735  .00024527  00000+0  16613-2 0  9994
2 47797  53.0551   9.8969 0001093  65.9210 294.1893 15.06365957139424
STARLINK-2379           
1 47798U 21018M   23257.44187660  .00020074  00000+0  13639-2 0  9998
2 47798  53.0554 344.4156 0001299  89.2803 270.8335 15.06367183139783
STARLINK-2380           
1 47799U 21018N   23257.43819170  .00020108  00000+0  13660-2 0  9998
2 47799  53.0552 344.4316 0001311  93.7682 266.3457 15.06371457139784
STARLINK-2381           
1 47800U 21018P   23257.39395596  .00015861  00000+0  10821-2 0  9993
2 47800  53.0564 344.6296 0001335  92.1014 268.0128 15.06372308139787
STARLINK-2382           
1 47801U 21018Q   23257.42852719  .00006934  00000+0  48440-3 0  9993
2 47801  53.0566 349.5601 0001601  89.9298 270.1875 15.06362973139711
STARLINK-2383           
1 47802U 21018R   23257.01014486  .00018958  00000+0  12901-2 0  9991
2 47802  53.0566  11.3514 0001439  82.3163 277.7989 15.06345354139371
STARLINK-2384           
1 47803U 21018S   23257.40501776  .00019737  00000+0  13412-2 0  9992
2 47803  53.0570 344.5790 0001346  91.9626 268.1518 15.06372557139783
STARLINK-2385           
1 47804U 21018T   23257.41975957  .00002808  00000+0  20751-3 0  9996
2 47804  53.0562 344.5130 0001551  94.7204 265.3962 15.06363264139781
STARLINK-2386           
1 47805U 21018U   23256.98852571  .00002592  00000+0  19291-3 0  9991
2 47805  53.0550 346.6911 0001598 102.7704 257.3463 15.06381370139713
STARLINK-2387           
1 47806U 21018V   23257.45708122  .00011445  00000+0  78675-3 0  9995
2 47806  53.0565 359.3572 0001467  90.8496 269.2661 15.06363073139581
STARLINK-2388           
1 47807U 21018W   23257.44648582  .00012468  00000+0  85501-3 0  9990
2 47807  53.0562 334.3950 0001583  90.0580 270.0590 15.06373678139928
STARLINK-2389           
1 47808U 21018X   23257.01106734  .00009099  00000+0  62930-3 0  9999
2 47808  53.0559   1.3495 0001636  81.8666 278.2508 15.06379760139514
STARLINK-2390           
1 47809U 21018Y   23257.39838104  .00006621  00000+0  44397-4 0  9990
2 47809  53.0485 342.3111 0001505 123.1851 236.9313 15.76739840139811
STARLINK-2391           
1 47810U 21018Z   23257.04101456  .00006635  00000+0  46401-3 0  9999
2 47810  53.0558  16.2100 0001339  85.2628 274.8513 15.06389792139301
STARLINK-2392           
1 47811U 21018AA  23257.41238658  .00003955  00000+0  28448-3 0  9999
2 47811  53.0567 344.5458 0001418  91.6500 268.4652 15.06371331139788
STARLINK-2393           
1 47812U 21018AB  23257.05207273  .00014223  00000+0  97230-3 0  9994
2 47812  53.0556  16.1607 0001133  76.5263 283.5852 15.06381046139309
STARLINK-2394           
1 47813U 21018AC  23257.43450646  .00017318  00000+0  11798-2 0  9993
2 47813  53.0549 344.4510 0001410  92.2730 267.8420 15.06363663139787
STARLINK-2395           
1 47814U 21018AD  23257.45845962  .00016417  00000+0  11193-2 0  9993
2 47814  53.0567   4.3359 0001485  97.6200 262.4957 15.06371234139525
STARLINK-2396           
1 47815U 21018AE  23257.29120703 -.00003198  00000+0 -19604-3 0  9995
2 47815  53.0552   0.0926 0001220  93.0857 267.0272 15.06375802139568
STARLINK-2399           
1 47816U 21018AF  23257.29996080  .00013169  00000+0  90216-3 0  9990
2 47816  53.0557   5.0528 0001347 102.1510 257.9630 15.06365843139497
STARLINK-2400           
1 47817U 21018AG  23257.45109419  .00001643  00000+0  12927-3 0  9998
2 47817  53.0572   4.3714 0001491  86.8079 273.3081 15.06369298139515
STARLINK-2401           
1 47818U 21018AH  23257.36048486  .00011230  00000+0  80651-3 0  9997
2 47818  53.0559   9.9358 0001295 100.1099 260.0036 15.04741508139430
STARLINK-2402           
1 47819U 21018AJ  23257.45382964  .00016518  00000+0  11260-2 0  9993
2 47819  53.0573   4.3505 0001142  71.0259 289.0854 15.06374314139523
STARLINK-2403           
1 47820U 21018AK  23257.30272439  .00012501  00000+0  85732-3 0  9998
2 47820  53.0559  15.0390 0001357  82.5501 277.5642 15.06370402139357
STARLINK-2406           
1 47821U 21018AL  23257.01613489  .00003410  00000+0  24777-3 0  9992
2 47821  53.0557   6.3350 0000693  91.3462 268.7607 15.06389332139457
STARLINK-2407           
1 47822U 21018AM  23257.35706554  .00005637  00000+0  39730-3 0  9994
2 47822  53.0580  14.7878 0001901 102.7995 257.3206 15.06373273139369
STARLINK-2408           
1 47823U 21018AN  23257.04098044  .00026813  00000+0  18108-2 0  9993
2 47823  53.0559   6.2045 0001183  69.7053 290.4063 15.06426362139454
STARLINK-2409           
1 47824U 21018AP  23257.03087632  .00018738  00000+0  12756-2 0  9994
